{
    "links": {
        "self": "http://www.neowsapp.com/rest/v1/neo/3672357?api_key=iIulBulltgU6a56xZRHN4H3l9WmuAYTsLGpBGhQ2"
    },
    "id": "3672357",
    "neo_reference_id": "3672357",
    "name": "(2014 KE22)",
    "designation": "2014 KE22",
    "nasa_jpl_url": "http://ssd.jpl.nasa.gov/sbdb.cgi?sstr=3672357",
    "absolute_magnitude_h": 25.3,
    "estimated_diameter": {
        "kilometers": {
            "estimated_diameter_min": 0.0231502122,
            "estimated_diameter_max": 0.0517654482
        },
        "meters": {
            "estimated_diameter_min": 23.150212221,
            "estimated_diameter_max": 51.7654482198
        },
        "miles": {
            "estimated_diameter_min": 0.0143848705,
            "estimated_diameter_max": 0.0321655483
        },
        "feet": {
            "estimated_diameter_min": 75.9521422633,
            "estimated_diameter_max": 169.8341531374
        }
    },
    "is_potentially_hazardous_asteroid": false,
    "close_approach_data": [
        {
            "close_approach_date": "2014-05-18",
            "close_approach_date_full": "2014-May-18 08:57",
            "epoch_date_close_approach": 1400403420000,
            "relative_velocity": {
                "kilometers_per_second": "6.6408411878",
                "kilometers_per_hour": "23907.0282759785",
                "miles_per_hour": "14854.8976529267"
            },
            "miss_distance": {
                "astronomical": "0.0674882739",
                "lunar": "26.2529385471",
                "kilometers": "10096102.025416593",
                "miles": "6273426.8959232634"
            },
            "orbiting_body": "Earth"
        }
    ],
    "orbital_data": {
        "orbit_id": "4",
        "orbit_determination_date": "2017-04-06 08:40:25",
        "first_observation_date": "2014-05-21",
        "last_observation_date": "2014-05-25",
        "data_arc_in_days": 4,
        "observations_used": 9,
        "orbit_uncertainty": "9",
        "minimum_orbit_intersection": ".0673846",
        "jupiter_tisserand_invariant": "3.204",
        "epoch_osculation": "2456799.5",
        "eccentricity": ".5721814727708616",
        "semi_major_axis": "2.52170481022383",
        "inclination": "2.197155063771402",
        "ascending_node_longitude": "58.92876356286293",
        "orbital_period": "1462.647917582995",
        "perihelion_distance": "1.078832038016593",
        "perihelion_argument": "177.2666555941886",
        "aphelion_distance": "3.964577582431068",
        "perihelion_time": "2456794.897676182374",
        "mean_anomaly": "1.132765140829831",
        "mean_motion": ".2461289526155377",
        "equinox": "J2000",
        "orbit_class": {
            "orbit_class_type": "AMO",
            "orbit_class_description": "Near-Earth asteroid orbits similar to that of 1221 Amor",
            "orbit_class_range": "1.017 AU < q (perihelion) < 1.3 AU"
        }
    },
    "is_sentry_object": false
}